UNKNOWN                 
1 87730U          25316.08883252  .00000139  00000+0  12968-3 0  9999
2 87730  82.9442 256.7759 0031412  89.0760 271.3995 13.74497763581122
UNKNOWN                 
1 87737U          25313.60253414  .00000076  00000+0  12433-3 0  9999
2 87737  99.3770 186.1152 0132391 276.2484  82.3598 13.72332957599319
UNKNOWN                 
1 87764U          25316.22571444  .00025034  00000+0  42517-2 0  9992
2 87764  65.6731 246.4117 0361781  92.8901  51.5212 14.34107174614742
UNKNOWN                 
1 87771U          25314.01057114  .00000104  00000+0  36279-3 0  9998
2 87771 100.7454 149.4638 0119749  76.4149 285.0270 13.19504038530770
UNKNOWN                 
1 87782U          25316.37555308  .00005218  00000+0  17272-1 0  9990
2 87782 102.3290 183.9897 0067169 297.9260  61.5047 13.00207360564044
UNKNOWN                 
1 87843U          25312.56513906  .00002523  00000+0  58341-2 0  9992
2 87843  99.6668  69.5949 0234440  86.6324 276.1578 13.16383909559664
UNKNOWN                 
1 87845U          25314.70557678  .00002827  00000+0  53269-2 0  9997
2 87845  98.8494 278.4852 0577545 327.6916  29.0002 12.88778831561085
UNKNOWN                 
1 87878U          25299.54209107  .00004309  00000+0  13670-2 0  9997
2 87878  99.1567  55.7518 0035552  46.7423 313.6721 14.40209006604508
UNKNOWN                 
1 87884U          25315.54766462  .00000392  00000+0  23770-3 0  9996
2 87884  98.7346  60.4885 0154642 155.7317 205.1236 14.05952431613986
UNKNOWN                 
1 87934U          25304.86397561  .00000094  00000+0  85338-4 0  9993
2 87934  82.9364 330.6631 0031579 150.2212  28.1460 13.73099371598562
UNKNOWN                 
1 87991U          25313.56693912  .00001143  00000+0  22182-2 0  9994
2 87991  28.6213  39.3508 0884807 172.3173 189.1934 12.34803735518897
UNKNOWN                 
1 89003U          25290.22784969  .00000441  00000+0  16019-3 0  9993
2 89003  74.0437 118.2873 0015417 192.1857 167.8926 14.36134798623431
